     2.100          NAVIGATION                              RINEX VERSION / TYPE
fic2rin                                 06/19/2016 00:05:35 PGM / RUN BY / DATE
                                                            END OF HEADER
11 16  6 18  8  0  0.0 -.651892740279D-03 -.261479726760D-11  .000000000000D+00
     .790000000000D+02 -.687500000000D+01  .587560188526D-08  .106508394445D+00
    -.437721610069D-06  .164610139327D-01  .997446477413D-05  .515366693878D+04
     .547200000000D+06 -.251457095146D-06 -.291599450150D+01 -.204890966415D-07
     .897262166342D+00  .157093750000D+03  .153285368265D+01 -.884501128737D-08
     .537165232231D-09  .100000000000D+01  .190100000000D+04  .000000000000D+00
     .340000000000D+01  .000000000000D+00 -.121071934700D-07  .790000000000D+02
     .540006000000D+06  .400000000000D+01
13 16  6 18  8  0  0.0 -.254940241575D-04 -.250111042988D-11  .000000000000D+00
     .800000000000D+02  .441875000000D+02  .418446001384D-08  .914649895685D+00
     .226683914661D-05  .425576046109D-02  .106599181890D-04  .515368703461D+04
     .547200000000D+06 -.391155481339D-07 -.335582881688D+00 -.838190317154D-07
     .971586674645D+00  .180468750000D+03  .200303234661D+01 -.771746432051D-08
    -.274297139863D-09  .100000000000D+01  .190100000000D+04  .000000000000D+00
     .340000000000D+01  .000000000000D+00 -.111758708954D-07  .800000000000D+02
     .540006000000D+06  .400000000000D+01
14 16  6 18  8  0  0.0 -.199731439352D-04 -.204636307899D-11  .000000000000D+00
     .101000000000D+03  .505000000000D+02  .420053211188D-08  .256327347600D+01
     .250525772572D-05  .876548758242D-02  .114589929581D-04  .515403403091D+04
     .547200000000D+06  .279396772385D-07 -.372744307097D+00 -.149011611938D-06
     .964048585476D+00  .156562500000D+03 -.196268422042D+01 -.758103006605D-08
    -.425374861428D-09  .100000000000D+01  .190100000000D+04  .000000000000D+00
     .340000000000D+01  .000000000000D+00 -.931322574615D-08  .101000000000D+03
     .540006000000D+06  .400000000000D+01
15 16  6 18  8  0  0.0 -.315769109875D-03 -.159161572810D-11  .000000000000D+00
     .690000000000D+02  .191562500000D+02  .519700219029D-08  .201651811941D+01
     .107288360596D-05  .816369173117D-02  .106431543827D-04  .515361498260D+04
     .547200000000D+06 -.225380063057D-06 -.509635742843D+00  .763684511185D-07
     .930782650513D+00  .161312500000D+03  .482194638576D+00 -.816819738106D-08
    -.396445084958D-09  .100000000000D+01  .190100000000D+04  .000000000000D+00
     .240000000000D+01  .000000000000D+00 -.107102096081D-07  .690000000000D+02
     .540006000000D+06  .400000000000D+01
16 16  6 18  8  0  0.0 -.101309269667D-04  .238742359215D-11  .000000000000D+00
     .350000000000D+02 -.687187500000D+02  .397838000121D-08 -.262503776466D+01
    -.349804759026D-05  .872551696375D-02  .203028321266D-05  .515377446747D+04
     .547200000000D+06 -.167638063431D-07  .171686476469D+01 -.558793544769D-07
     .990534164318D+00  .356875000000D+03  .394968832746D+00 -.800676208521D-08
    -.234295473633D-09  .100000000000D+01  .190100000000D+04  .000000000000D+00
     .240000000000D+01  .000000000000D+00 -.107102096081D-07  .350000000000D+02
     .540006000000D+06  .400000000000D+01
17 16  6 18  8  0  0.0 -.204018317163D-03  .000000000000D+00  .000000000000D+00
     .980000000000D+02 -.980625000000D+02  .362443668662D-08  .280772825153D+01
    -.497885048389D-05  .109833822353D-01  .992976129055D-05  .515371119881D+04
     .547200000000D+06  .931322574615D-07  .273835062119D+01 -.521540641785D-07
     .976928528789D+00  .194750000000D+03 -.192802376904D+01 -.737066416060D-08
     .907180644858D-10  .100000000000D+01  .190100000000D+04  .000000000000D+00
     .340000000000D+01  .000000000000D+00 -.107102096081D-07  .980000000000D+02
     .540006000000D+06  .400000000000D+01
18 16  6 18  8  0  0.0  .527671538293D-03  .397903932026D-11  .000000000000D+00
     .106000000000D+03 -.170625000000D+02  .573309594932D-08 -.192050653815D+01
    -.689178705215D-06  .172392920358D-01  .454299151897D-05  .515368430901D+04
     .547200000000D+06  .264495611191D-06 -.152974960602D+01  .106170773506D-06
     .924527401523D+00  .265062500000D+03 -.187697551769D+01 -.836391981940D-08
    -.678599694973D-11  .100000000000D+01  .190100000000D+04  .000000000000D+00
     .340000000000D+01  .000000000000D+00 -.121071934700D-07  .106000000000D+03
     .540006000000D+06  .400000000000D+01
19 16  6 18  8  0  0.0 -.525429844856D-03  .113686837722D-12  .000000000000D+00
     .710000000000D+02 -.730000000000D+02  .382980238378D-08 -.354336204097D+00
    -.357814133167D-05  .107834646478D-01  .999122858047D-05  .515362651443D+04
     .547200000000D+06  .782310962677D-07  .278705790371D+01  .152736902237D-06
     .974066758202D+00  .196718750000D+03  .793072021604D+00 -.782639742944D-08
     .170364239212D-09  .100000000000D+01  .190100000000D+04  .000000000000D+00
     .240000000000D+01  .000000000000D+00 -.149011611938D-07  .710000000000D+02
     .540006000000D+06  .400000000000D+01
20 16  6 18  8  0  0.0  .419123098254D-03  .227373675443D-11  .000000000000D+00
     .800000000000D+02 -.199687500000D+02  .579952728788D-08  .199739622796D+01
    -.106729567051D-05  .456732069142D-02  .487640500069D-05  .515374548721D+04
     .547200000000D+06  .000000000000D+00 -.158156159715D+01 -.987201929092D-07
     .925805528179D+00  .267812500000D+03  .138168920182D+01 -.852964100807D-08
    -.807176479283D-10  .100000000000D+01  .190100000000D+04  .000000000000D+00
     .240000000000D+01  .000000000000D+00 -.838190317154D-08  .800000000000D+02
     .540006000000D+06  .400000000000D+01
21 16  6 18  8  0  0.0 -.526139046997D-03 -.102318153949D-11  .000000000000D+00
     .950000000000D+02  .278125000000D+02  .517592988397D-08 -.102059030780D+01
     .193528831005D-05  .233525199583D-01  .832974910736D-05  .515359607124D+04
     .547200000000D+06 -.149011611938D-06 -.257179615878D+01  .521540641785D-06
     .936729241344D+00  .212125000000D+03 -.178249615879D+01 -.854178437103D-08
     .697529054885D-09  .100000000000D+01  .190100000000D+04  .000000000000D+00
     .240000000000D+01  .000000000000D+00 -.102445483208D-07  .950000000000D+02
     .540006000000D+06  .400000000000D+01
22 16  6 18  8  0  0.0  .317317899317D-03 -.875388650456D-11  .000000000000D+00
     .184000000000D+03 -.212500000000D+02  .591596070922D-08  .235500660364D+01
    -.118277966976D-05  .767090287991D-02  .489316880703D-05  .515378954697D+04
     .547200000000D+06  .838190317154D-07 -.152914916153D+01 -.122934579849D-06
     .922433864810D+00  .267593750000D+03 -.190338696023D+01 -.852321216886D-08
    -.140005831805D-09  .100000000000D+01  .190100000000D+04  .000000000000D+00
     .340000000000D+01  .000000000000D+00 -.176951289177D-07  .184000000000D+03
     .540006000000D+06  .400000000000D+01
23 16  6 18  8  0  0.0 -.178606249392D-03 -.159161572810D-11  .000000000000D+00
     .990000000000D+02  .240312500000D+02  .481341478376D-08  .149420820439D+01
     .149570405483D-05  .110338887898D-01  .117681920528D-04  .515366990280D+04
     .547200000000D+06 -.149011611938D-06 -.451523515058D+00  .163912773132D-06
     .946048646861D+00  .148843750000D+03 -.256246183735D+01 -.811998108695D-08
    -.501449458811D-09  .100000000000D+01  .190100000000D+04  .000000000000D+00
     .340000000000D+01  .000000000000D+00 -.200234353542D-07  .990000000000D+02
     .540006000000D+06  .400000000000D+01
24 16  6 18  8  0  0.0 -.187675468624D-04 -.568434188608D-12  .000000000000D+00
     .120000000000D+02  .112625000000D+03  .484698761078D-08  .940055966796D+00
     .602938234806D-05  .443048239686D-02  .532902777195D-05  .515361812210D+04
     .547200000000D+06  .409781932831D-07  .573589371797D+00  .800937414169D-07
     .949512406774D+00  .267562500000D+03  .413908143244D+00 -.835284792964D-08
     .503592405216D-10  .100000000000D+01  .190100000000D+04  .000000000000D+00
     .240000000000D+01  .000000000000D+00  .232830643654D-08  .120000000000D+02
     .540006000000D+06  .400000000000D+01
25 16  6 18  8  0  0.0 -.192368868738D-03 -.704858393874D-11  .000000000000D+00
     .520000000000D+02 -.478125000000D+02  .428517849488D-08 -.112860113520D+01
    -.254064798355D-05  .563229888212D-02  .204145908356D-05  .515373754120D+04
     .547200000000D+06  .119209289551D-06  .164686682929D+01  .540167093277D-07
     .978234303134D+00  .349343750000D+03  .788186978260D+00 -.822248535666D-08
    -.303226916332D-09  .100000000000D+01  .190100000000D+04  .000000000000D+00
     .240000000000D+01  .000000000000D+00  .558793544769D-08  .520000000000D+02
     .540006000000D+06  .400000000000D+01
26 16  6 18  8  0  0.0 -.399101059884D-03 -.110276232590D-10  .000000000000D+00
     .450000000000D+02 -.511250000000D+02  .465126517244D-08 -.194122643647D+01
    -.255368649960D-05  .101260887459D-02  .139884650707D-05  .515377346420D+04
     .547200000000D+06 -.782310962677D-07  .163750449737D+01  .596046447754D-07
     .960201125557D+00  .353687500000D+03  .203589851580D+00 -.840463580110D-08
    -.239295681911D-09  .100000000000D+01  .190100000000D+04  .000000000000D+00
     .240000000000D+01  .000000000000D+00  .698491930962D-08  .450000000000D+02
     .540006000000D+06  .400000000000D+01
28 16  6 18  8  0  0.0  .530988909304D-03  .272848410532D-11  .000000000000D+00
     .930000000000D+02 -.620000000000D+02  .382444501777D-08 -.267314004571D+01
    -.312551856041D-05  .197380632162D-01  .184401869774D-05  .515362690735D+04
     .547200000000D+06  .210478901863D-06  .172179309431D+01 -.167638063431D-07
     .989249660802D+00  .358437500000D+03 -.161589245163D+01 -.762746057149D-08
    -.210008747707D-09  .100000000000D+01  .190100000000D+04  .000000000000D+00
     .340000000000D+01  .000000000000D+00 -.111758708954D-07  .930000000000D+02
     .540006000000D+06  .400000000000D+01
